STARLINK-1166
1 15060C 20006S   21326.09898110  .00002567  00000-0  17199-3 0  3267
2 15060  53.0517 128.3049 0001611  79.2016 175.0817 15.06393095    10
